CCSDS_OMM_VERS,COMMENT,CREATION_DATE,ORIGINATOR,OBJECT_NAME,OBJECT_ID,CENTER_NAME,REF_FRAME,TIME_SYSTEM,MEAN_ELEMENT_THEORY,EPOCH,MEAN_MOTION,ECCENTRICITY,INCLINATION,RA_OF_ASC_NODE,ARG_OF_PERICENTER,MEAN_ANOMALY,EPHEMERIS_TYPE,CLASSIFICATION_TYPE,NORAD_CAT_ID,ELEMENT_SET_NO,REV_AT_EPOCH,BSTAR,MEAN_MOTION_DOT,MEAN_MOTION_DDOT,SEMIMAJOR_AXIS,PERIOD,APOAPSIS,PERIAPSIS,OBJECT_TYPE,RCS_SIZE,COUNTRY_CODE,LAUNCH_DATE,SITE,DECAY_DATE,DECAYED,FILE,GP_ID,TLE_LINE0,TLE_LINE1,TLE_LINE2,height_km,latitude,longitude,velocity_kms,id
2.0,GENERATED VIA SPACE-TRACK.ORG API,2022-11-30T17:18:05,18 SPCS,STARLINK-1047,2019-074AR,EARTH,TEME,UTC,SGP4,2022-11-30T13:09:37.880640,15.06389729,0.0001887,53.0527,171.8236,61.5819,298.536,0,U,44752,999,16833,-1.8871e-05,-5.63e-06,0.0,6925.38,95.593,548.552,545.938,PAYLOAD,LARGE,US,2019-11-11,AFETR,,0,3675646,219172301,0 STARLINK-1047,1 44752U 19074AR  22334.54835510 -.00000563  00000-0 -18871-4 0  9993,2 44752  53.0527 171.8236 0001887  61.5819 298.5360 15.06389729168332,566.1053151182577,-51.58515222640138,126.9387698086065,7.577373321364954,5eed7714096e590006985674
2.0,GENERATED VIA SPACE-TRACK.ORG API,2022-03-27T13:56:11,18 SPCS,STARLINK-1050,2019-074AU,EARTH,TEME,UTC,SGP4,2022-03-27T13:35:07.001664,16.4504716,0.0003622,53.0298,189.2044,326.2159,135.0631,0,U,44755,999,13135,0.0018103,0.598733,1.2542e-05,6530.548,87.535,154.778,150.047,PAYLOAD,LARGE,US,2019-11-11,AFETR,2022-03-27,1,3376183,199795774,0 STARLINK-1050,1 44755U 19074AU  22086.56605326  .59873300  12542-4  18103-2 0  9995,2 44755  53.0298 189.2044 0003622 326.2159 135.0631 16.45047160131359,,,,,5eed7714096e590006985675
2.0,GENERATED VIA SPACE-TRACK.ORG API,2022-11-30T17:18:05,18 SPCS,STARLINK-1059,2019-074BD,EARTH,TEME,UTC,SGP4,2022-11-30T13:47:58.508736,15.11280089,0.0003672,53.0555,169.1943,157.2209,202.8946,0,U,44764,999,16837,0.00025294,4.013e-05,0.0,6910.432,95.283,534.835,529.76,PAYLOAD,LARGE,US,2019-11-11,AFETR,,0,3675646,219171805,0 STARLINK-1059,1 44764U 19074BD  22334.57498274  .00004013  00000-0  25294-3 0  9999,2 44764  53.0555 169.1943 0003672 157.2209 202.8946 15.11280089168378,531.6967814103864,30.807845533603174,-11.4591020970912,7.602359208018727,5eed7714096e590006985676
2.0,GENERATED VIA SPACE-TRACK.ORG API,2022-11-30T17:18:05,18 SPCS,STARLINK-1058,2019-074BC,EARTH,TEME,UTC,SGP4,2022-11-30T07:25:56.091072,15.06376416,0.000155,53.0548,192.8748,81.1031,279.0134,0,U,44763,999,16802,0.00051877,7.449e-05,0.0,6925.421,95.594,548.359,546.212,PAYLOAD,LARGE,US,2019-11-11,AFETR,,0,3675646,219171054,0 STARLINK-1058,1 44763U 19074BC  22334.30967698  .00007449  00000-0  51877-3 0  9992,2 44763  53.0548 192.8748 0001550  81.1031 279.0134 15.06376416168027,548.8681343876215,33.09293238294505,8.349038366993877,7.592172930711956,5eed7714096e590006985677
2.0,GENERATED VIA SPACE-TRACK.ORG API,2022-11-30T07:26:14,18 SPCS,STARLINK-1084,2020-001B,EARTH,TEME,UTC,SGP4,2022-11-30T05:03:57.165984,15.06400412,0.0002154,53.0526,313.3449,58.2845,301.8353,0,U,44915,999,15966,0.00012388,1.564e-05,0.0,6925.347,95.592,548.704,545.721,PAYLOAD,LARGE,US,2020-01-07,AFETR,,0,3674287,219125215,0 STARLINK-1084,1 44915U 20001B   22334.21107831  .00001564  00000-0  12388-3 0  9994,2 44915  53.0526 313.3449 0002154  58.2845 301.8353 15.06400412159660,559.4118169771345,-36.60052674355244,-56.19827875249199,7.5813299867283455,5eed7714096e590006985678
2.0,GENERATED VIA SPACE-TRACK.ORG API,2022-11-30T17:18:05,18 SPCS,STARLINK-1053,2019-074AX,EARTH,TEME,UTC,SGP4,2022-11-30T13:49:27.128352,15.06399816,0.0001465,53.0531,191.7798,83.1235,276.992,0,U,44758,999,16806,8.606e-05,1.001e-05,0.0,6925.349,95.592,548.229,546.2,PAYLOAD,LARGE,US,2019-11-11,AFETR,,0,3675646,219172802,0 STARLINK-1053,1 44758U 19074AX  22334.57600843  .00001001  00000-0  86060-4 0  9992,2 44758  53.0531 191.7798 0001465  83.1235 276.9920 15.06399816168061,549.4246585729843,36.579761607914605,3.905564523619274,7.592273264569684,5eed7714096e590006985679
2.0,GENERATED VIA SPACE-TRACK.ORG API,2022-11-30T17:18:05,18 SPCS,STARLINK-1035,2019-074AD,EARTH,TEME,UTC,SGP4,2022-11-30T06:20:55.188960,15.06396459,0.0001704,53.0538,173.0972,62.3699,297.7462,0,U,44740,999,16829,0.0001367,1.755e-05,0.0,6925.359,95.592,548.404,546.044,PAYLOAD,LARGE,US,2019-11-11,AFETR,,0,3675646,219172553,0 STARLINK-1035,1 44740U 19074AD  22334.26452765  .00001755  00000-0  13670-3 0  9999,2 44740  53.0538 173.0972 0001704  62.3699 297.7462 15.06396459168292,546.6178623441865,17.477870243557422,-148.83683480755795,7.591920559186824,5eed7714096e59000698567a
2.0,GENERATED VIA SPACE-TRACK.ORG API,2022-11-30T17:18:05,18 SPCS,STARLINK-1052,2019-074AW,EARTH,TEME,UTC,SGP4,2022-11-30T13:25:33.780000,15.06389093,0.0001456,53.0531,171.7769,79.1055,281.0098,0,U,44757,999,16833,0.00012171,1.531e-05,0.0,6925.382,95.593,548.255,546.239,PAYLOAD,LARGE,US,2019-11-11,AFETR,,0,3675646,219172054,0 STARLINK-1052,1 44757U 19074AW  22334.55941875  .00001531  00000-0  12171-3 0  9991,2 44757  53.0531 171.7769 0001456  79.1055 281.0098 15.06389093168330,558.1443059929006,-32.51036491590164,46.01585927742546,7.581876661231968,5eed7714096e59000698567b
2.0,GENERATED VIA SPACE-TRACK.ORG API,2022-02-10T22:46:11,18 SPCS,STARLINK-1064,2019-074BJ,EARTH,TEME,UTC,SGP4,2022-02-10T21:21:12.684960,16.34346539,0.0002481,53.0345,356.8546,215.4574,145.3008,0,U,44769,999,12506,0.0032275,0.23298976,1.2172e-05,6559.022,88.109,182.514,179.26,PAYLOAD,LARGE,US,2019-11-11,AFETR,2022-02-11,1,3297075,195691470,0 STARLINK-1064,1 44769U 19074BJ  22041.88973015  .23298976  12172-4  32275-2 0  9995,2 44769  53.0345 356.8546 0002481 215.4574 145.3008 16.34346539125061,,,,,5eed7714096e59000698567c
2.0,GENERATED VIA SPACE-TRACK.ORG API,2022-11-30T17:18:05,18 SPCS,STARLINK-1065,2019-074BK,EARTH,TEME,UTC,SGP4,2022-11-30T13:44:27.826656,15.25757039,0.0003974,53.0053,159.9293,173.761,186.3437,0,U,44770,999,16846,0.0011269,0.00028921,0.0,6866.65,94.379,491.244,485.786,PAYLOAD,LARGE,US,2019-11-11,AFETR,,0,3675646,219172556,0 STARLINK-1065,1 44770U 19074BK  22334.57254429  .00028921  00000-0  11269-2 0  9998,2 44770  53.0053 159.9293 0003974 173.7610 186.3437 15.25757039168467,485.97188983153774,14.356751359461832,-5.322471243417671,7.626137773806519,5eed7714096e59000698567d
2.0,GENERATED VIA SPACE-TRACK.ORG API,2022-11-30T17:18:05,18 SPCS,STARLINK-1073,2020-001A,EARTH,TEME,UTC,SGP4,2022-11-30T10:43:39.567936,15.06394543,0.0001762,53.0563,312.2737,62.834,297.2829,0,U,44914,999,15969,6.1458e-05,6.34e-06,0.0,6925.365,95.592,548.451,546.01,PAYLOAD,LARGE,US,2020-01-07,AFETR,,0,3675646,219172570,0 STARLINK-1073,1 44914U 20001A   22334.44698574  .00000634  00000-0  61458-4 0  9997,2 44914  53.0563 312.2737 0001762  62.8340 297.2829 15.06394543159699,551.7779924023926,47.94532807070132,101.53777352807184,7.592247457023592,5eed7714096e59000698567e
2.0,GENERATED VIA SPACE-TRACK.ORG API,2022-11-30T03:22:20,18 SPCS,STARLINK-1062,2019-074BG,EARTH,TEME,UTC,SGP4,2022-11-29T16:44:48.885792,15.06395687,0.0001835,53.0541,195.6371,60.4283,299.6889,0,U,44767,999,16793,9.6537e-05,1.156e-05,0.0,6925.362,95.592,548.498,545.956,PAYLOAD,LARGE,US,2019-11-11,AFETR,,0,3673849,219108989,0 STARLINK-1062,1 44767U 19074BG  22333.69778803  .00001156  00000-0  96537-4 0  9997,2 44767  53.0541 195.6371 0001835  60.4283 299.6889 15.06395687167937,548.9020775294357,-7.124114988639802,-132.6082698177545,7.5884478632786285,5eed7714096e59000698567f
2.0,GENERATED VIA SPACE-TRACK.ORG API,2022-11-30T17:18:05,18 SPCS,STARLINK-1049,2019-074AT,EARTH,TEME,UTC,SGP4,2022-11-30T11:47:21.958368,15.06392775,0.0001957,53.0543,152.081,61.5948,298.5238,0,U,44754,999,16860,0.00012593,1.594e-05,0.0,6925.371,95.593,548.591,545.88,PAYLOAD,LARGE,US,2019-11-11,AFETR,,0,3675646,219171804,0 STARLINK-1049,1 44754U 19074AT  22334.49122637  .00001594  00000-0  12593-3 0  9995,2 44754  53.0543 152.0810 0001957  61.5948 298.5238 15.06392775168601,561.3926554440577,-39.22360448306388,35.17095724660687,7.579751039845296,5eed7714096e590006985680
2.0,GENERATED VIA SPACE-TRACK.ORG API,2022-11-30T17:18:05,18 SPCS,STARLINK-1061,2019-074BF,EARTH,TEME,UTC,SGP4,2022-11-30T00:54:30.969216,15.06379287,0.0001467,53.0522,194.1162,75.6931,284.4221,0,U,44766,999,16798,-0.00014566,-2.449e-05,0.0,6925.412,95.593,548.293,546.261,PAYLOAD,LARGE,US,2019-11-11,AFETR,,0,3675646,219172803,0 STARLINK-1061,1 44766U 19074BF  22334.03785844 -.00002449  00000-0 -14566-3 0  9997,2 44766  53.0522 194.1162 0001467  75.6931 284.4221 15.06379287167981,547.6333156256433,6.397877686702233,32.73089847544523,7.589838127914081,5eed7714096e590006985681
2.0,GENERATED VIA SPACE-TRACK.ORG API,2022-11-30T17:18:05,18 SPCS,STARLINK-1119,2020-001Q,EARTH,TEME,UTC,SGP4,2022-11-30T07:59:07.427040,15.06388703,0.0002092,53.0569,312.7878,49.8951,310.2221,0,U,44928,999,15968,2.9771e-05,1.62e-06,0.0,6925.383,95.593,548.697,545.799,PAYLOAD,LARGE,US,2020-01-07,AFETR,,0,3675646,219172071,0 STARLINK-1119,1 44928U 20001Q   22334.33272485  .00000162  00000-0  29771-4 0  9997,2 44928  53.0569 312.7878 0002092  49.8951 310.2221 15.06388703159683,546.2665571285115,9.537206910156314,-15.243810444104687,7.591508927902705,5eed7714096e590006985682
2.0,GENERATED VIA SPACE-TRACK.ORG API,2022-11-30T17:18:05,18 SPCS,STARLINK-1104,2020-001J,EARTH,TEME,UTC,SGP4,2022-11-30T07:06:03.911040,15.06372165,0.0001781,53.0551,312.9575,61.0672,299.0496,0,U,44922,999,15967,-7.7757e-05,-1.439e-05,0.0,6925.434,95.594,548.532,546.065,PAYLOAD,LARGE,US,2020-01-07,AFETR,,0,3675646,219171570,0 STARLINK-1104,1 44922U 20001J   22334.29587860 -.00001439  00000-0 -77757-4 0  9999,2 44922  53.0551 312.9575 0001781  61.0672 299.0496 15.06372165159676,555.6788803853797,-25.187931795941996,178.13697316836064,7.583213779072775,5eed7714096e590006985683
